{"fetched_at":"2026-03-30T06:02:59Z","count":15439,"tles":[{"name":"STARLINK-5241","line1":"1 54204U 22141AZ  26087.89711211  .00000538  00000+0  51850-4 0  9996","line2":"2 54204  53.2168 267.4636 0001186  88.9133 271.1995 15.08843506188904","category":"Starlink"}]}