{
  "norad_id": 54204,
  "name": "STARLINK-5241",
  "history": [
    {
      "epoch": "2026-03-28T21:31:50.486304",
      "apogee_km": 540.5531318886151,
      "perigee_km": 538.9122132022876,
      "latitude_deg": -15.642145643604369,
      "longitude_deg": 46.5227625600528,
      "semi_major_axis_km": 6917.869672545451,
      "eccentricity": 0.0001186,
      "inclination_deg": 53.2168,
      "raan_deg": 267.4636,
      "arg_perigee_deg": 88.9133,
      "mean_anomaly_deg": 271.1995,
      "mean_motion_rev_day": 15.08843506
    }
  ]
}